SAT00065
1 00066U   20000A 25089.00000000  .00000000  00000-0  00000-0 0  9998
2 00066  69.9000 108.0000 0000000   0.0000 190.8000 15.01307642000004
SAT00066
1 00067U   20000A 25089.00000000  .00000000  00000-0  00000-0 0  9999
2 00067  69.9000 108.0000 0000000   0.0000 226.8000 15.01307642000005
SAT00067
1 00068U   20000A 25089.00000000  .00000000  00000-0  00000-0 0  9990
2 00068  69.9000 108.0000 0000000   0.0000 262.8000 15.01307642000006
SAT00068
1 00069U   20000A 25089.00000000  .00000000  00000-0  00000-0 0  9991
2 00069  69.9000 108.0000 0000000   0.0000 298.8000 15.01307642000006
SAT00069
1 00070U   20000A 25089.00000000  .00000000  00000-0  00000-0 0  9993
2 00070  69.9000 108.0000 0000000   0.0000 334.8000 15.01307642000009
SAT00070
1 00071U   20000A 25089.00000000  .00000000  00000-0  00000-0 0  9994
2 00071  69.9000 126.0000 0000000   0.0000  12.6000 15.01307642000001
SAT00071
1 00072U   20000A 25089.00000000  .00000000  00000-0  00000-0 0  9995
2 00072  69.9000 126.0000 0000000   0.0000  48.6000 15.01307642000001
SAT00072
1 00073U   20000A 25089.00000000  .00000000  00000-0  00000-0 0  9996
2 00073  69.9000 126.0000 0000000   0.0000  84.6000 15.01307642000002
SAT00073
1 00074U   20000A 25089.00000000  .00000000  00000-0  00000-0 0  9997
2 00074  69.9000 126.0000 0000000   0.0000 120.6000 15.01307642000004
SAT00074
1 00075U   20000A 25089.00000000  .00000000  00000-0  00000-0 0  9998
2 00075  69.9000 126.0000 0000000   0.0000 156.6000 15.01307642000004
SAT00075
1 00076U   20000A 25089.00000000  .00000000  00000-0  00000-0 0  9999
2 00076  69.9000 126.0000 0000000   0.0000 192.6000 15.01307642000005
SAT00076
1 00077U   20000A 25089.00000000  .00000000  00000-0  00000-0 0  9990
2 00077  69.9000 126.0000 0000000   0.0000 228.6000 15.01307642000006
SAT00077
1 00078U   20000A 25089.00000000  .00000000  00000-0  00000-0 0  9991
2 00078  69.9000 126.0000 0000000   0.0000 264.6000 15.01307642000007
SAT00078
1 00079U   20000A 25089.00000000  .00000000  00000-0  00000-0 0  9992
2 00079  69.9000 126.0000 0000000   0.0000 300.6000 15.01307642000009
SAT00079
1 00080U   20000A 25089.00000000  .00000000  00000-0  00000-0 0  9994
2 00080  69.9000 126.0000 0000000   0.0000 336.6000 15.01307642000000
SAT00080
1 00081U   20000A 25089.00000000  .00000000  00000-0  00000-0 0  9995
2 00081  69.9000 144.0000 0000000   0.0000  14.4000 15.01307642000002
SAT00081
1 00082U   20000A 25089.00000000  .00000000  00000-0  00000-0 0  9996
2 00082  69.9000 144.0000 0000000   0.0000  50.4000 15.01307642000003
SAT00082
1 00083U   20000A 25089.00000000  .00000000  00000-0  00000-0 0  9997
2 00083  69.9000 144.0000 0000000   0.0000  86.4000 15.01307642000003
SAT00083
1 00084U   20000A 25089.00000000  .00000000  00000-0  00000-0 0  9998
2 00084  69.9000 144.0000 0000000   0.0000 122.4000 15.01307642000005
SAT00084
1 00085U   20000A 25089.00000000  .00000000  00000-0  00000-0 0  9999
2 00085  69.9000 144.0000 0000000   0.0000 158.4000 15.01307642000005
SAT00085
1 00086U   20000A 25089.00000000  .00000000  00000-0  00000-0 0  9990
2 00086  69.9000 144.0000 0000000   0.0000 194.4000 15.01307642000006
SAT00086
1 00087U   20000A 25089.00000000  .00000000  00000-0  00000-0 0  9991
2 00087  69.9000 144.0000 0000000   0.0000 230.4000 15.01307642000008
SAT00087
1 00088U   20000A 25089.00000000  .00000000  00000-0  00000-0 0  9992
2 00088  69.9000 144.0000 0000000   0.0000 266.4000 15.01307642000008
SAT00088
1 00089U   20000A 25089.00000000  .00000000  00000-0  00000-0 0  9993
2 00089  69.9000 144.0000 0000000   0.0000 302.4000 15.01307642000000
SAT00089
1 00090U   20000A 25089.00000000  .00000000  00000-0  00000-0 0  9995
2 00090  69.9000 144.0000 0000000   0.0000 338.4000 15.01307642000001
SAT00090
1 00091U   20000A 25089.00000000  .00000000  00000-0  00000-0 0  9996
2 00091  69.9000 162.0000 0000000   0.0000  16.2000 15.01307642000003
SAT00091
1 00092U   20000A 25089.00000000  .00000000  00000-0  00000-0 0  9997
2 00092  69.9000 162.0000 0000000   0.0000  52.2000 15.01307642000004
SAT00092
1 00093U   20000A 25089.00000000  .00000000  00000-0  00000-0 0  9998
2 00093  69.9000 162.0000 0000000   0.0000  88.2000 15.01307642000004
SAT00093
1 00094U   20000A 25089.00000000  .00000000  00000-0  00000-0 0  9999
2 00094  69.9000 162.0000 0000000   0.0000 124.2000 15.01307642000006
SAT00094
1 00095U   20000A 25089.00000000  .00000000  00000-0  00000-0 0  9990
2 00095  69.9000 162.0000 0000000   0.0000 160.2000 15.01307642000007
SAT00095
1 00096U   20000A 25089.00000000  .00000000  00000-0  00000-0 0  9991
2 00096  69.9000 162.0000 0000000   0.0000 196.2000 15.01307642000007
SAT00096
1 00097U   20000A 25089.00000000  .00000000  00000-0  00000-0 0  9992
2 00097  69.9000 162.0000 0000000   0.0000 232.2000 15.01307642000009
SAT00097
1 00098U   20000A 25089.00000000  .00000000  00000-0  00000-0 0  9993
2 00098  69.9000 162.0000 0000000   0.0000 268.2000 15.01307642000009
SAT00098
1 00099U   20000A 25089.00000000  .00000000  00000-0  00000-0 0  9994
2 00099  69.9000 162.0000 0000000   0.0000 304.2000 15.01307642000001
SAT00099
1 00100U   20000A 25089.00000000  .00000000  00000-0  00000-0 0  9997
2 00100  69.9000 162.0000 0000000   0.0000 340.2000 15.01307642000004
SAT00100
1 00101U   20000A 25089.00000000  .00000000  00000-0  00000-0 0  9998
2 00101  69.9000 180.0000 0000000   0.0000  18.0000 15.01307642000005
SAT00101
1 00102U   20000A 25089.00000000  .00000000  00000-0  00000-0 0  9999
2 00102  69.9000 180.0000 0000000   0.0000  54.0000 15.01307642000006
SAT00102
1 00103U   20000A 25089.00000000  .00000000  00000-0  00000-0 0  9990
2 00103  69.9000 180.0000 0000000   0.0000  90.0000 15.01307642000007
SAT00103
1 00104U   20000A 25089.00000000  .00000000  00000-0  00000-0 0  9991
2 00104  69.9000 180.0000 0000000   0.0000 126.0000 15.01307642000008
SAT00104
1 00105U   20000A 25089.00000000  .00000000  00000-0  00000-0 0  9992
2 00105  69.9000 180.0000 0000000   0.0000 162.0000 15.01307642000009
SAT00105
1 00106U   20000A 25089.00000000  .00000000  00000-0  00000-0 0  9993
2 00106  69.9000 180.0000 0000000   0.0000 198.0000 15.01307642000009
SAT00106
1 00107U   20000A 25089.00000000  .00000000  00000-0  00000-0 0  9994
2 00107  69.9000 180.0000 0000000   0.0000 234.0000 15.01307642000001
SAT00107
1 00108U   20000A 25089.00000000  .00000000  00000-0  00000-0 0  9995
2 00108  69.9000 180.0000 0000000   0.0000 270.0000 15.01307642000002
SAT00108
1 00109U   20000A 25089.00000000  .00000000  00000-0  00000-0 0  9996
2 00109  69.9000 180.0000 0000000   0.0000 306.0000 15.01307642000003
SAT00109
1 00110U   20000A 25089.00000000  .00000000  00000-0  00000-0 0  9998
2 00110  69.9000 180.0000 0000000   0.0000 342.0000 15.01307642000005
SAT00110
1 00111U   20000A 25089.00000000  .00000000  00000-0  00000-0 0  9999
2 00111  69.9000 198.0000 0000000   0.0000  19.8000 15.01307642000004
SAT00111
1 00112U   20000A 25089.00000000  .00000000  00000-0  00000-0 0  9990
2 00112  69.9000 198.0000 0000000   0.0000  55.8000 15.01307642000005
SAT00112
1 00113U   20000A 25089.00000000  .00000000  00000-0  00000-0 0  9991
2 00113  69.9000 198.0000 0000000   0.0000  91.8000 15.01307642000006
SAT00113
1 00114U   20000A 25089.00000000  .00000000  00000-0  00000-0 0  9992
2 00114  69.9000 198.0000 0000000   0.0000 127.8000 15.01307642000007
SAT00114
1 00115U   20000A 25089.00000000  .00000000  00000-0  00000-0 0  9993
2 00115  69.9000 198.0000 0000000   0.0000 163.8000 15.01307642000008
SAT00115
1 00116U   20000A 25089.00000000  .00000000  00000-0  00000-0 0  9994
2 00116  69.9000 198.0000 0000000   0.0000 199.8000 15.01307642000008
SAT00116
1 00117U   20000A 25089.00000000  .00000000  00000-0  00000-0 0  9995
2 00117  69.9000 198.0000 0000000   0.0000 235.8000 15.01307642000000
SAT00117
1 00118U   20000A 25089.00000000  .00000000  00000-0  00000-0 0  9996
2 00118  69.9000 198.0000 0000000   0.0000 271.8000 15.01307642000001
SAT00118
1 00119U   20000A 25089.00000000  .00000000  00000-0  00000-0 0  9997
2 00119  69.9000 198.0000 0000000   0.0000 307.8000 15.01307642000002
SAT00119
1 00120U   20000A 25089.00000000  .00000000  00000-0  00000-0 0  9999
2 00120  69.9000 198.0000 0000000   0.0000 343.8000 15.01307642000004
SAT00120
1 00121U   20000A 25089.00000000  .00000000  00000-0  00000-0 0  9990
2 00121  69.9000 216.0000 0000000   0.0000  21.6000 15.01307642000007
SAT00121
1 00122U   20000A 25089.00000000  .00000000  00000-0  00000-0 0  9991
2 00122  69.9000 216.0000 0000000   0.0000  57.6000 15.01307642000007
SAT00122
1 00123U   20000A 25089.00000000  .00000000  00000-0  00000-0 0  9992
2 00123  69.9000 216.0000 0000000   0.0000  93.6000 15.01307642000008
SAT00123
1 00124U   20000A 25089.00000000  .00000000  00000-0  00000-0 0  9993
2 00124  69.9000 216.0000 0000000   0.0000 129.6000 15.01307642000009
SAT00124
1 00125U   20000A 25089.00000000  .00000000  00000-0  00000-0 0  9994
2 00125  69.9000 216.0000 0000000   0.0000 165.6000 15.01307642000000
SAT00125
1 00126U   20000A 25089.00000000  .00000000  00000-0  00000-0 0  9995
2 00126  69.9000 216.0000 0000000   0.0000 201.6000 15.01307642000002
SAT00126
1 00127U   20000A 25089.00000000  .00000000  00000-0  00000-0 0  9996
2 00127  69.9000 216.0000 0000000   0.0000 237.6000 15.01307642000002
SAT00127
1 00128U   20000A 25089.00000000  .00000000  00000-0  00000-0 0  9997
2 00128  69.9000 216.0000 0000000   0.0000 273.6000 15.01307642000003
SAT00128
1 00129U   20000A 25089.00000000  .00000000  00000-0  00000-0 0  9998
2 00129  69.9000 216.0000 0000000   0.0000 309.6000 15.01307642000004
SAT00129
1 00130U   20000A 25089.00000000  .00000000  00000-0  00000-0 0  9990
2 00130  69.9000 216.0000 0000000   0.0000 345.6000 15.01307642000006
